OBJECT_NAME,OBJECT_ID,EPOCH,MEAN_MOTION,ECCENTRICITY,INCLINATION,RA_OF_ASC_NODE,ARG_OF_PERICENTER,MEAN_ANOMALY,EPHEMERIS_TYPE,CLASSIFICATION_TYPE,NORAD_CAT_ID,ELEMENT_SET_NO,REV_AT_EPOCH,BSTAR,MEAN_MOTION_DOT,MEAN_MOTION_DDOT
COSMOS 2530 (RODNIK-S 16),2018-097A,2026-05-09T23:30:24.535296,12.42880558,.0020724,82.5141,245.9903,118.9269,241.3893,0,U,43751,999,33754,.43796179E-3,.71E-6,0
COSMOS 2531 (RODNIK-S 17),2018-097B,2026-05-09T22:07:56.212896,12.42911858,.00177544,82.5186,247.0716,136.8167,223.4309,0,U,43752,999,33755,-.35987895E-3,-.4E-6,0
COSMOS 2532 (RODNIK-S 18),2018-097C,2026-05-09T22:48:30.663360,12.42908613,.00191156,82.5131,245.8573,138.9662,221.2859,0,U,43753,999,33752,-.32463211E-4,.6E-7,0
MINXSS-2,2018-099A,2026-05-09T22:59:15.347328,15.44435133,.00078019,97.4546,205.1984,54.5576,305.6399,0,U,43758,999,40822,.50164914E-3,.23175E-3,0
SIRION PATHFINDER-2,2018-099B,2026-05-09T20:34:43.336128,15.14197000,.00104359,97.4283,179.8305,77.0112,283.2284,0,U,43759,999,40682,.17560874E-3,.3144E-4,0
AISTECHSAT 2,2018-099L,2026-05-09T22:03:11.904192,15.15057211,.00063609,97.4325,178.7959,79.3745,280.8204,0,U,43768,999,40648,.18608879E-3,.3416E-4,0
FOX-1CLIFF (AO-95),2018-099N,2026-05-09T22:06:06.100416,15.25880331,.00103813,97.4407,190.3291,120.3065,239.9201,0,U,43770,999,40738,.32207853E-3,.8192E-4,0
RANGE-A,2018-099R,2026-05-09T15:01:36.916608,15.13052339,.0012022,97.3999,173.3375,117.7069,242.5384,0,U,43773,999,40666,.16706781E-3,.2894E-4,0
SNUSAT-2,2018-099AA,2026-05-09T20:39:02.347776,15.21248624,.00118953,97.4088,183.8453,74.8994,285.3557,0,U,43782,999,40720,.23878532E-3,.5274E-4,0
SNUGLITE,2018-099AC,2026-05-09T20:48:55.440576,15.26341438,.00043279,97.3898,184.5443,79.6583,280.5143,0,U,43784,999,40747,.30592089E-3,.7878E-4,0
ITASAT,2018-099AE,2026-05-09T20:59:49.384896,15.18560272,.00142645,97.4059,182.1601,123.4576,236.8024,0,U,43786,999,40709,.23822375E-3,.4867E-4,0
EAGLET-I,2018-099AJ,2026-05-09T21:17:10.713120,15.12643666,.00127528,97.4259,180.5726,115.7427,244.5121,0,U,43790,999,40654,.19449257E-3,.3342E-4,0
ESEO,2018-099AL,2026-05-09T15:55:18.742368,15.04121738,.00133242,97.3995,168.6978,103.8641,256.4068,0,U,43792,999,40601,.1235913E-3,.1658E-4,0
THEA,2018-099AQ,2026-05-09T22:04:02.189856,15.33728253,.00084922,97.4457,199.2761,69.2069,291.0082,0,U,43796,999,40682,.38099576E-3,.12366E-3,0
ASTROCAST 0.1,2018-099AS,2026-05-09T22:24:49.224384,15.47074245,.00041784,97.4385,207.3147,14.1661,345.9705,0,U,43798,999,40851,.46936829E-3,.23709E-3,0
JY1SAT (JO-97),2018-099AX,2026-05-09T15:35:12.115392,15.32438814,.00066783,97.4153,192.3834,60.7161,299.4748,0,U,43803,999,40772,.39610517E-3,.12343E-3,0
SUOMI-100,2018-099AY,2026-05-09T21:28:41.016288,15.27537745,.00112227,97.4213,190.4524,62.4997,297.7382,0,U,43804,999,40757,.31044812E-3,.8304E-4,0
CENTAURI-1,2018-099BD,2026-05-09T22:14:56.172192,15.15968738,.00159787,97.4250,182.4740,101.0106,259.2925,0,U,43809,999,40670,.18860405E-3,.3564E-4,0
GLOBAL-2,2018-099BG,2026-05-09T14:28:12.958464,15.08445026,.00042477,97.3586,167.7215,292.6068,67.4711,0,U,43812,999,40609,.1294399E-3,.1956E-4,0
SEAHAWK-1,2018-099BQ,2026-05-09T22:48:10.508832,15.22174408,.00100214,97.3987,183.0319,87.1287,273.1096,0,U,43820,999,40671,.28387941E-3,.6454E-4,0
SAUDISAT 5A,2018-102A,2026-05-09T23:33:31.322592,15.27656490,.00079807,97.3089,192.3052,268.1916,91.8410,0,U,43831,999,40984,.14173879E-3,.3761E-4,0
SAUDISAT 5B,2018-102C,2026-05-09T22:35:59.552736,15.27933565,.00087006,97.3194,195.2665,271.3131,88.7112,0,U,43833,999,40995,.13211149E-3,.3531E-4,0
ISAT,2018-111D,2026-05-09T18:53:03.816672,15.59211307,.00084774,97.5899,62.2548,89.9373,270.2855,0,U,43879,999,40517,.69689157E-3,.54888E-3,0
UWE-4,2018-111E,2026-05-09T17:45:50.308704,15.43800580,.00107178,97.5852,56.4350,101.4285,258.8167,0,U,43880,999,40484,.49161165E-3,.22244E-3,0
D-STAR ONE (SPARROW),2018-111F,2026-05-09T19:23:27.032064,15.65334822,.00075763,97.6122,67.3159,112.9726,247.2333,0,U,43881,999,40535,.75791816E-3,.75846E-3,0
JILIN-1 09,2019-005B,2026-05-09T22:33:58.140864,15.20173966,.000182,97.4711,225.2448,179.7277,180.3959,0,U,43943,999,40333,.16985465E-3,.3608E-4,0
JILIN-1 10,2019-005E,2026-05-09T22:48:57.835296,15.25303540,.0009397,97.4752,228.7746,60.6853,299.5323,0,U,43946,999,40348,.1753063E-3,.4345E-4,0
EGYPTSAT-A (MISRSAT-A),2019-008A,2026-05-09T22:45:24.920640,14.72262470,.00013941,98.0051,195.2749,74.7459,285.3902,0,U,44047,999,38761,.97600649E-4,.567E-5,0
