COSMOS 2530 (RODNIK-S *)
1 43751U 18097A   26129.97945064  .00000071  00000+0  43796-3 0  9998
2 43751  82.5141 245.9903 0020724 118.9269 241.3893 12.42880558337541
COSMOS 2531 (RODNIK-S *)
1 43752U 18097B   26129.92217839 -.00000040  00000+0 -35988-3 0  9998
2 43752  82.5186 247.0716 0017754 136.8167 223.4309 12.42911858337553
COSMOS 2532 (RODNIK-S *)
1 43753U 18097C   26129.95035490  .00000006  00000+0 -32463-4 0  9990
2 43753  82.5131 245.8573 0019115 138.9662 221.2859 12.42908613337525
MINXSS-2                
1 43758U 18099A   26129.95781652  .00023175  00000+0  50165-3 0  9994
2 43758  97.4546 205.1984 0007801  54.5576 305.6399 15.44435133408225
SIRION PATHFINDER-2     
1 43759U 18099B   26129.85744602  .00003144  00000+0  17561-3 0  9995
2 43759  97.4283 179.8305 0010435  77.0112 283.2284 15.14197000406824
AISTECHSAT 2            
1 43768U 18099L   26129.91888778  .00003416  00000+0  18609-3 0  9991
2 43768  97.4325 178.7959 0006360  79.3745 280.8204 15.15057211406480
FOX-1CLIFF (AO-95)      
1 43770U 18099N   26129.92090394  .00008192  00000+0  32208-3 0  9991
2 43770  97.4407 190.3291 0010381 120.3065 239.9201 15.25880331407383
RANGE-A                 
1 43773U 18099R   26129.62612172  .00002894  00000+0  16707-3 0  9994
2 43773  97.3999 173.3375 0012022 117.7069 242.5384 15.13052339406661
SNUSAT-2                
1 43782U 18099AA  26129.86044384  .00005274  00000+0  23879-3 0  9997
2 43782  97.4088 183.8453 0011895  74.8994 285.3557 15.21248624407202
SNUGLITE                
1 43784U 18099AC  26129.86730834  .00007878  00000+0  30592-3 0  9993
2 43784  97.3898 184.5443 0004327  79.6583 280.5143 15.26341438407477
ITASAT                  
1 43786U 18099AE  26129.87487714  .00004867  00000+0  23822-3 0  9995
2 43786  97.4059 182.1601 0014264 123.4576 236.8024 15.18560272407090
EAGLET-I                
1 43790U 18099AJ  26129.88692955  .00003342  00000+0  19449-3 0  9993
2 43790  97.4259 180.5726 0012752 115.7427 244.5121 15.12643666406542
ESEO                    
1 43792U 18099AL  26129.66341137  .00001658  00000+0  12359-3 0  9995
2 43792  97.3995 168.6978 0013324 103.8641 256.4068 15.04121738406014
THEA                    
1 43796U 18099AQ  26129.91946979  .00012366  00000+0  38100-3 0  9992
2 43796  97.4457 199.2761 0008492  69.2069 291.0082 15.33728253406828
ASTROCAST 0.1           
1 43798U 18099AS  26129.93390306  .00023709  00000+0  46937-3 0  9993
2 43798  97.4385 207.3147 0004178  14.1661 345.9705 15.47074245408512
JY1SAT (JO-97)          
1 43803U 18099AX  26129.64944578  .00012343  00000+0  39611-3 0  9997
2 43803  97.4153 192.3834 0006678  60.7161 299.4748 15.32438814407729
SUOMI-100               
1 43804U 18099AY  26129.89491917  .00008304  00000+0  31045-3 0  9994
2 43804  97.4213 190.4524 0011222  62.4997 297.7382 15.27537745407574
CENTAURI-1              
1 43809U 18099BD  26129.92703903  .00003564  00000+0  18860-3 0  9997
2 43809  97.4250 182.4740 0015978 101.0106 259.2925 15.15968738406702
GLOBAL-2                
1 43812U 18099BG  26129.60292776  .00001956  00000+0  12944-3 0  9997
2 43812  97.3586 167.7215 0004247 292.6068  67.4711 15.08445026406097
SEAHAWK-1               
1 43820U 18099BQ  26129.95012163  .00006454  00000+0  28388-3 0  9991
2 43820  97.3987 183.0319 0010021  87.1287 273.1096 15.22174408406714
SAUDISAT 5A             
1 43831U 18102A   26129.98161253  .00003761  00000+0  14174-3 0  9992
2 43831  97.3089 192.3052 0007980 268.1916  91.8410 15.27656490409849
SAUDISAT 5B             
1 43833U 18102C   26129.94166149  .00003531  00000+0  13211-3 0  9995
2 43833  97.3194 195.2665 0008700 271.3131  88.7112 15.27933565409953
ISAT                    
1 43879U 18111D   26129.78684973  .00054888  00000+0  69689-3 0  9998
2 43879  97.5899  62.2548 0008477  89.9373 270.2855 15.59211307405172
UWE-4                   
1 43880U 18111E   26129.74016561  .00022244  00000+0  49161-3 0  9992
2 43880  97.5852  56.4350 0010717 101.4285 258.8167 15.43800580404842
D-STAR ONE (SPARROW)    
1 43881U 18111F   26129.80795176  .00075846  00000+0  75792-3 0  9991
2 43881  97.6122  67.3159 0007576 112.9726 247.2333 15.65334822405357
JILIN-1 09              
1 43943U 19005B   26129.94025626  .00003608  00000+0  16985-3 0  9990
2 43943  97.4711 225.2448 0001820 179.7277 180.3959 15.20173966403330
JILIN-1 10              
1 43946U 19005E   26129.95066939  .00004345  00000+0  17531-3 0  9993
2 43946  97.4752 228.7746 0009397  60.6853 299.5323 15.25303540403484
EGYPTSAT-A (MISRSAT-A)  
1 44047U 19008A   26129.94820510  .00000567  00000+0  97601-4 0  9990
2 44047  98.0051 195.2749 0001394  74.7459 285.3902 14.72262470387613
